FENGYUN 3B              
1 37214U 10059A   24312.60152868  .00000486  00000+0  27595-3 0  9998
2 37214  99.0423 342.6223 0022905  49.2049 103.1199 14.14615516724487
COSMO-SKYMED 4          
1 37216U 10060A   24312.57471567  .00002478  00000+0  31758-3 0  9997
2 37216  97.8876 133.6579 0001657  84.7352 275.4050 14.82177995757676
O/OREOS (USA 219)       
1 37224U 10062C   24312.45859490  .00008700  00000+0  92375-3 0  9996
2 37224  71.9725 325.3742 0012876 102.6417 257.6192 14.89182232 29140
ELEKTRO-L 1 (GOMS 2)    
1 37344U 11001A   24311.99963877 -.00000025  00000+0  00000+0 0  9999
2 37344   8.3412  60.2438 0004076  35.2148 307.7619  1.00247452 50591
RESOURCESAT-2           
1 37387U 11015A   24312.59335377  .00000787  00000+0  37753-3 0  9999
2 37387  98.5608  14.2432 0005122  67.0917 293.0801 14.21703689702836
YOUTHSAT                
1 37388U 11015B   24312.48875706  .00001181  00000+0  52038-3 0  9995
2 37388  98.3092 304.4260 0013353 265.6925 246.3889 14.25141977704058
APRIZESAT 6             
1 37793U 11044F   24312.62613010  .00003724  00000+0  54996-3 0  9991
2 37793  98.2789 199.4210 0044888 158.2619 231.5867 14.75211179710619
JUGNU                   
1 37839U 11058B   24312.21914672  .00001330  00000+0  55706-3 0  9991
2 37839  19.9613 273.6171 0018844  75.6546 312.4618 14.13408683675872
SRMSAT                  
1 37841U 11058D   24312.50942903  .00001092  00000+0  45135-3 0  9994
2 37841  19.9734   9.8310 0011562 230.0098 158.2679 14.11275257674837
SUOMI NPP               
1 37849U 11061A   24312.54882966  .00000549  00000+0  28101-3 0  9992
2 37849  98.7348 248.4356 0001218 128.7219 231.4066 14.19556012675213
YAOGAN-12               
1 37875U 11066B   24312.57358493  .00024844  00000+0  10312-2 0  9990
2 37875  97.2007   6.5208 0003215 191.5704 168.5460 15.23826871722684
ZIYUAN 3-1 (ZY 3-1)     
1 38046U 12001A   24312.62191661  .00049535  00000+0  12078-2 0  9994
2 38046  97.2242  12.0281 0003373   5.8565 354.2721 15.40728332712894
BEIDOU-2 M4             
1 38251U 12018B   24311.15555914 -.00000040  00000+0  00000+0 0  9990
2 38251  56.1439 323.8711 0016382 266.8272  93.0186  1.86232005 84991
ARIRANG-3 (KOMPSAT-3)   
1 38338U 12025B   24312.62335325  .00002948  00000+0  57875-3 0  9993
2 38338  98.2793 259.2044 0010710 144.4317 215.7600 14.63415243665634
HORYU-2                 
1 38340U 12025D   24312.54119522  .00012214  00000+0  14564-2 0  9990
2 38340  98.1687  55.4094 0008646 296.4060  63.6266 14.84411868661475
CSSWE                   
1 38761U 12048D   24312.18622163  .00042712  00000+0  19754-2 0  9994
2 38761  64.6672 234.4142 0120609 330.9371  28.5071 15.13591599 26685
CP5                     
1 38763U 12048F   24312.30608869  .00035157  00000+0  18591-2 0  9990
2 38763  64.6597 264.5454 0129348 337.8986  21.6584 15.08287183 27656
METOP-B                 
1 38771U 12049A   24312.55401811  .00000689  00000+0  33389-3 0  9990
2 38771  98.6101   6.4349 0001297  83.3033 276.8293 14.21576457629925
SJ-9A                   
1 38860U 12056A   24312.55262275  .00005249  00000+0  64709-3 0  9993
2 38860  97.6061 298.1962 0028215  30.5036 329.7812 14.83026389612553
COSMOS 2484             
1 39059U 13001C   24312.58219060  .00000060  00000+0  36423-3 0  9990
2 39059  82.5042 226.6197 0025253 233.3631 126.5127 12.42909666535686
SARAL                   
1 39086U 13009A   24312.54921648  .00000712  00000+0  27849-3 0  9992
2 39086  98.5502 135.7214 0001377 187.6345 172.4818 14.32572958611603
AAUSAT 3                
1 39087U 13009B   24312.52854040  .00003487  00000+0  11552-2 0  9997
2 39087  98.3656 139.3462 0011802 168.8403 191.3049 14.38449345612782
STRAND-1                
1 39090U 13009E   24312.16386092  .00001798  00000+0  62763-3 0  9992
2 39090  98.3788 136.5606 0008692 178.6915 181.4296 14.36433175612765
BRITE-AUSTRIA           
1 39091U 13009F   24312.51983117  .00001200  00000+0  42704-3 0  9994
2 39091  98.3838 136.1818 0010070 185.9057 174.2013 14.36051381612834
UNIBRITE                
1 39092U 13009G   24312.47972322  .00001213  00000+0  43275-3 0  9994
2 39092  98.3875 136.1041 0009072 181.3048 178.8116 14.35923890612773
AIST-2 (RS-43)          
1 39133U 13015D   24312.60332327  .00015114  00000+0  77793-3 0  9994
2 39133  64.8714   2.1337 0023827 306.2596  53.6328 15.16368165634642
GAOFEN-1                
1 39150U 13018A   24312.59714816  .00003392  00000+0  49256-3 0  9999
2 39150  97.9752  23.3287 0019797   1.9830 358.1454 14.76517977621685
NEE-01 PEGASO           
1 39151U 13018B   24312.56754461  .00010749  00000+0  11728-2 0  9993
2 39151  98.0513  71.4087 0013310 293.4054  66.5762 14.88050512623275
TURKSAT-3USAT           
1 39152U 13018C   24312.21323108  .00012228  00000+0  12764-2 0  9991
2 39152  97.8224  36.1727 0012874 249.3264 110.6574 14.89806520623471
CUBEBUG-1 (CAPITAN BETO)
1 39153U 13018D   24312.31818196  .00013650  00000+0  14087-2 0  9999
2 39153  98.0936  80.6994 0012778 284.6807  75.2994 14.90247225623423
PROBA-V                 
1 39159U 13021A   24312.41423517  .00000494  00000+0  23562-3 0  9990
2 39159  98.3118 310.9866 0005225  59.8990 300.2707 14.23372837597635
ESTCUBE 1               
1 39161U 13021C   24312.14377372  .00007902  00000+0  11012-2 0  9997
2 39161  97.8114  14.2608 0009872 122.8615 237.3548 14.77966898618196
ARIRANG-5 (KOMPSAT-5)   
1 39227U 13042A   24312.56225757  .00006081  00000+0  43839-3 0  9998
2 39227  97.6179 136.4706 0001922  12.9826 347.1449 15.04511248615659
GONETS-M 5              
1 39249U 13048A   24312.52742794  .00000048  00000+0  27760-3 0  9991
2 39249  82.4838 349.0943 0017466  55.9933 304.2802 12.42905526506008
GONETS-M 7              
1 39251U 13048C   24312.58298388  .00000068  00000+0  42100-3 0  9992
2 39251  82.4910 351.6743 0018002  56.5601 303.7197 12.42884528505968
FENGYUN 3C              
1 39260U 13052A   24312.58264377  .00000586  00000+0  31563-3 0  9994
2 39260  98.4386 304.6618 0009932 274.2757  85.7283 14.16337274575564
CASSIOPE                
1 39265U 13055A   24312.54512458  .00067339  00000+0  12640-2 0  9997
2 39265  80.9503  35.0327 0456778 178.5257 181.7437 14.80798169579526
APRIZESAT 7             
1 39416U 13066A   24312.62334455  .00007239  00000+0  77141-3 0  9996
2 39416  97.6916 267.3224 0037814 357.3317   2.7692 14.88649506593869
ZACUBE-1 (TSHEPISOSAT)  
1 39417U 13066B   24312.37323360  .00016915  00000+0  16137-2 0  9990
2 39417  97.7533 265.5296 0049749  47.8948 312.6484 14.92444281592911
APRIZESAT 8             
1 39425U 13066K   24312.42918133  .00005511  00000+0  63490-3 0  9998
2 39425  97.7484 260.7196 0049672  56.6758 303.9198 14.85206576592496
CINEMA-3 (KHUSAT-2)     
1 39426U 13066L   24312.45002913  .00008706  00000+0  12092-2 0  9992
2 39426  97.8427 229.8614 0094046 310.8124  48.4956 14.75070519587844
TRITON-1                
1 39427U 13066M   24312.59085816  .00014748  00000+0  19632-2 0  9991
2 39427  97.8374 226.0988 0098502 340.9091  18.8437 14.76405456587351
DELFI-N3XT              
1 39428U 13066N   24312.53488065  .00026951  00000+0  30968-2 0  9993
2 39428  97.8336 227.4100 0093678 344.3057  15.5257 14.82606894587293
GOMX-1                  
1 39430U 13066Q   24312.56313324  .00007295  00000+0  11705-2 0  9992
2 39430  97.7071 178.2336 0136816 155.7835 204.9883 14.65814016583850
BRITE-PL1 (LEM)         
1 39431U 13066R   24312.64794370  .00002480  00000+0  51265-3 0  9993
2 39431  97.7241  98.9137 0195749  35.8413 325.5736 14.49766030578896
ICUBE-1                 
1 39432U 13066S   24312.36802202  .00023972  00000+0  15901-2 0  9992
2 39432  97.5173 289.9571 0023389 199.8389 160.1932 15.07023197595464
HUMSAT-D                
1 39433U 13066T   24312.20462548  .00044714  00000+0  21899-2 0  9991
2 39433  97.4981 301.1993 0017513 142.3855 217.8607 15.17881506596376
VELOX-PII               
1 39438U 13066Y   24312.47432945  .00011338  00000+0  12327-2 0  9995
2 39438  97.8041 257.2621 0061367 120.0401 240.6922 14.86841098590440
FIRST-MOVE              
1 39439U 13066Z   24311.80562260  .00055514  00000+0  33907-2 0  9997
2 39439  97.7273 275.0798 0037669  18.0689 342.1868 15.09471995592318
CUBEBUG-2 (LO-74)       
1 39440U 13066AA  24312.60689195  .00012276  00000+0  13448-2 0  9991
2 39440  97.8268 253.5083 0066854 162.6962 197.6555 14.86260900589612
NEE-02 KRYSAOR          
1 39441U 13066AB  24312.27439031  .00007371  00000+0  89324-3 0  9994
2 39441  97.8340 248.4161 0071330 188.6960 171.3023 14.82083779589112
FUNCUBE-1 (AO-73)       
1 39444U 13066AE  24312.35312095  .00022047  00000+0  19080-2 0  9994
2 39444  97.7376 269.0872 0045625  26.9045 333.4528 14.96350684591488
HINCUBE                 
1 39445U 13066AF  24312.37561577  .00022021  00000+0  19282-2 0  9994
2 39445  97.7397 268.6932 0046379  30.7163 329.6757 14.95869499591406
UWE-3                   
1 39446U 13066AG  24312.34583763  .00014463  00000+0  14896-2 0  9990
2 39446  97.7980 259.3887 0059436 107.3614 253.4115 14.89040511589982
SMDC ONE 2.4            
1 39469U 13072H   24312.40132528  .00028048  00000+0  15160-2 0  9997
2 39469 120.5003 278.3364 0208178 104.2306 258.1973 14.97910553 29278
CP8 (IPEX)              
1 39471U 13072K   24312.59929402  .00023037  00000+0  13860-2 0  9993
2 39471 120.4708 252.4462 0217672  99.2018 263.3732 14.93175866 27147
COSMOS 2488             
1 39483U 13076A   24312.61319496  .00000037  00000+0  19937-3 0  9996
2 39483  82.4852 174.2434 0018858 295.1103  64.8020 12.42896050493029
COSMOS 2489             
1 39484U 13076B   24312.58715023  .00000058  00000+0  34970-3 0  9996
2 39484  82.4890 175.4606 0020938 296.3827  63.5103 12.42889599493077
COSMOS 2490             
1 39485U 13076C   24312.63802872  .00000027  00000+0  12702-3 0  9997
2 39485  82.4835 173.7514 0020955 311.2943  48.6332 12.42902936493014
